STARLINK-31630          
1 59271U 24050T   26068.56880718 -.00002063  00000+0 -57526-4 0  9991
2 59271  53.1600 168.5079 0001409  92.3163 267.7999 15.30200807110710
STARLINK-31779          
1 59744U 24090Q   26067.38922977  .00000515  00000+0  28248-4 0  9990
2 59744  43.0036 190.6375 0001686 284.6515  75.4150 15.27581796103243
